{"type": "FeatureCollection", "features": [ {"type": "Feature", "properties": {"norad_id": 34400, "name": "COSMOS 2251 DEB", "group": "cosmos-2251-debris", "lat": -4.818516440538641, "lon": -146.75202491251997, "alt_km": 416.02395355434965, "timestamp": "2025-12-08T21:31:05.060682+00:00", "meta": {"OBJECT_NAME": "COSMOS 2251 DEB", "OBJECT_ID": "1993-036QR", "EPOCH": "2025-12-08T12:59:00.268512", "MEAN_MOTION": 15.51081243, "ECCENTRICITY": 0.00062387, "INCLINATION": 73.9666, "RA_OF_ASC_NODE": 32.6433, "ARG_OF_PERICENTER": 269.9683, "MEAN_ANOMALY": 90.0815, "EPHEMERIS_TYPE": 0, "CLASSIFICATION_TYPE": "U", "NORAD_CAT_ID": 34400, "ELEMENT_SET_NO": 999, "REV_AT_EPOCH": 89909, "BSTAR": 0.0037966545, "MEAN_MOTION_DOT": 0.00227844, "MEAN_MOTION_DDOT": 0}, "tle": {"line1": "1 34400U 93036QR  25342.54097533  .00227844  00000+0  37967-2 0  9994", "line2": "2 34400  73.9666  32.6433 0006238 269.9683  90.0815 15.51081243899091"}}, "geometry": {"type": "Point", "coordinates": [-146.75202491251997, -4.818516440538641]}}, {"type": "Feature", "properties": {"norad_id": 34409, "name": "COSMOS 2251 DEB", "group": "cosmos-2251-debris", "lat": -43.4452581897998, "lon": -61.56547228390707, "alt_km": 690.9772422316246, "timestamp": "2025-12-08T21:31:05.060692+00:00", "meta": {"OBJECT_NAME": "COSMOS 2251 DEB", "OBJECT_ID": "1993-036RA", "EPOCH": "2025-12-08T09:06:24.073056", "MEAN_MOTION": 14.58011296, "ECCENTRICITY": 0.00796428, "INCLINATION": 74.0629, "RA_OF_ASC_NODE": 315.1189, "ARG_OF_PERICENTER": 30.6242, "MEAN_ANOMALY": 91.4084, "EPHEMERIS_TYPE": 0, "CLASSIFICATION_TYPE": "U", "NORAD_CAT_ID": 34409, "ELEMENT_SET_NO": 999, "REV_AT_EPOCH": 89129, "BSTAR": 0.00046874619, "MEAN_MOTION_DOT": 2.22e-05, "MEAN_MOTION_DDOT": 0}, "tle": {"line1": "1 34409U 93036RA  25342.37944529  .00002220  00000+0  46875-3 0  9998", "line2": "2 34409  74.0629 315.1189 0079642  30.6242  91.4084 14.58011296891295"}}, "geometry": {"type": "Point", "coordinates": [-61.56547228390707, -43.4452581897998]}}, {"type": "Feature", "properties": {"norad_id": 34410, "name": "COSMOS 2251 DEB", "group": "cosmos-2251-debris", "lat": -52.855520287538155, "lon": 112.58988957845368, "alt_km": 525.3588525036075, "timestamp": "2025-12-08T21:31:05.060702+00:00", "meta": {"OBJECT_NAME": "COSMOS 2251 DEB", "OBJECT_ID": "1993-036RB", "EPOCH": "2025-12-07T19:19:01.043616", "MEAN_MOTION": 15.18216238, "ECCENTRICITY": 0.00208826, "INCLINATION": 73.7396, "RA_OF_ASC_NODE": 272.2499, "ARG_OF_PERICENTER": 114.4201, "MEAN_ANOMALY": 276.7771, "EPHEMERIS_TYPE": 0, "CLASSIFICATION_TYPE": "U", "NORAD_CAT_ID": 34410, "ELEMENT_SET_NO": 999, "REV_AT_EPOCH": 89699, "BSTAR": 0.0039922688, "MEAN_MOTION_DOT": 0.00083069, "MEAN_MOTION_DDOT": 0}, "tle": {"line1": "1 34410U 93036RB  25341.80487319  .00083069  00000+0  39923-2 0  9991", "line2": "2 34410  73.7396 272.2499 0020882 114.4201 276.7771 15.18216238896992"}}, "geometry": {"type": "Point", "coordinates": [112.58988957845368, -52.855520287538155]}}, {"type": "Feature", "properties": {"norad_id": 34412, "name": "COSMOS 2251 DEB", "group": "cosmos-2251-debris", "lat": -43.859987993889604, "lon": -44.22426861287354, "alt_km": 793.3591549464727, "timestamp": "2025-12-08T21:31:05.060713+00:00", "meta": {"OBJECT_NAME": "COSMOS 2251 DEB", "OBJECT_ID": "1993-036RD", "EPOCH": "2025-12-08T10:06:59.610528", "MEAN_MOTION": 14.47063224, "ECCENTRICITY": 0.01871153, "INCLINATION": 73.9489, "RA_OF_ASC_NODE": 332.7298, "ARG_OF_PERICENTER": 68.83, "MEAN_ANOMALY": 293.2739, "EPHEMERIS_TYPE": 0, "CLASSIFICATION_TYPE": "U", "NORAD_CAT_ID": 34412, "ELEMENT_SET_NO": 999, "REV_AT_EPOCH": 87588, "BSTAR": 0.0015468157, "MEAN_MOTION_DOT": 6.993e-05, "MEAN_MOTION_DDOT": 0}, "tle": {"line1": "1 34412U 93036RD  25342.42152327  .00006993  00000+0  15468-2 0  9999", "line2": "2 34412  73.9489 332.7298 0187115  68.8300 293.2739 14.47063224875882"}}, "geometry": {"type": "Point", "coordinates": [-44.22426861287354, -43.859987993889604]}}, {"type": "Feature", "properties": {"norad_id": 34413, "name": "COSMOS 2251 DEB", "group": "cosmos-2251-debris", "lat": -22.466129244237752, "lon": -94.94175697421078, "alt_km": 736.2407983881894, "timestamp": "2025-12-08T21:31:05.060723+00:00", "meta": {"OBJECT_NAME": "COSMOS 2251 DEB", "OBJECT_ID": "1993-036RE", "EPOCH": "2025-12-08T07:14:47.702400", "MEAN_MOTION": 14.29041787, "ECCENTRICITY": 0.00908308, "INCLINATION": 74.0321, "RA_OF_ASC_NODE": 272.9374, "ARG_OF_PERICENTER": 350.2421, "MEAN_ANOMALY": 168.6978, "EPHEMERIS_TYPE": 0, "CLASSIFICATION_TYPE": "U", "NORAD_CAT_ID": 34413, "ELEMENT_SET_NO": 999, "REV_AT_EPOCH": 87067, "BSTAR": 0.0025289754, "MEAN_MOTION_DOT": 6.674e-05, "MEAN_MOTION_DDOT": 0}, "tle": {"line1": "1 34413U 93036RE  25342.30194100  .00006674  00000+0  25290-2 0  9992", "line2": "2 34413  74.0321 272.9374 0090830 350.2421 168.6978 14.29041787870671"}}, "geometry": {"type": "Point", "coordinates": [-94.94175697421078, -22.466129244237752]}}, {"type": "Feature", "properties": {"norad_id": 34420, "name": "COSMOS 2251 DEB", "group": "cosmos-2251-debris", "lat": -63.175739753035195, "lon": -34.12267950844038, "alt_km": 600.572450008417, "timestamp": "2025-12-08T21:31:05.060733+00:00", "meta": {"OBJECT_NAME": "COSMOS 2251 DEB", "OBJECT_ID": "1993-036RM", "EPOCH": "2025-12-08T15:35:43.221984", "MEAN_MOTION": 14.68279136, "ECCENTRICITY": 0.01067986, "INCLINATION": 74.0337, "RA_OF_ASC_NODE": 111.8701, "ARG_OF_PERICENTER": 233.9492, "MEAN_ANOMALY": 149.9641, "EPHEMERIS_TYPE": 0, "CLASSIFICATION_TYPE": "U", "NORAD_CAT_ID": 34420, "ELEMENT_SET_NO": 999, "REV_AT_EPOCH": 89710, "BSTAR": 0.00046737762, "MEAN_MOTION_DOT": 2.905e-05, "MEAN_MOTION_DDOT": 0}, "tle": {"line1": "1 34420U 93036RM  25342.64980581  .00002905  00000+0  46738-3 0  9997", "line2": "2 34420  74.0337 111.8701 0106798 233.9492 149.9641 14.68279136897107"}}, "geometry": {"type": "Point", "coordinates": [-34.12267950844038, -63.175739753035195]}}, {"type": "Feature", "properties": {"norad_id": 34425, "name": "COSMOS 2251 DEB", "group": "cosmos-2251-debris", "lat": 56.60456225237727, "lon": 87.6463097007166, "alt_km": 691.7865858263804, "timestamp": "2025-12-08T21:31:05.060743+00:00", "meta": {"OBJECT_NAME": "COSMOS 2251 DEB", "OBJECT_ID": "1993-036RS", "EPOCH": "2025-12-08T14:40:24.588480", "MEAN_MOTION": 14.62091735, "ECCENTRICITY": 0.00251246, "INCLINATION": 74.0201, "RA_OF_ASC_NODE": 62.429, "ARG_OF_PERICENTER": 189.9381, "MEAN_ANOMALY": 170.1293, "EPHEMERIS_TYPE": 0, "CLASSIFICATION_TYPE": "U", "NORAD_CAT_ID": 34425, "ELEMENT_SET_NO": 999, "REV_AT_EPOCH": 88680, "BSTAR": 0.0010056454, "MEAN_MOTION_DOT": 5.048e-05, "MEAN_MOTION_DDOT": 0}, "tle": {"line1": "1 34425U 93036RS  25342.61139570  .00005048  00000+0  10056-2 0  9997", "line2": "2 34425  74.0201  62.4290 0025124 189.9381 170.1293 14.62091735886801"}}, "geometry": {"type": "Point", "coordinates": [87.6463097007166, 56.60456225237727]}}, {"type": "Feature", "properties": {"norad_id": 34429, "name": "COSMOS 2251 DEB", "group": "cosmos-2251-debris", "lat": 62.128284712354976, "lon": -36.57307604952441, "alt_km": 441.3466253749684, "timestamp": "2025-12-08T21:31:05.060753+00:00", "meta": {"OBJECT_NAME": "COSMOS 2251 DEB", "OBJECT_ID": "1993-036RW", "EPOCH": "2025-12-08T15:03:02.425824", "MEAN_MOTION": 15.39418995, "ECCENTRICITY": 0.00062264, "INCLINATION": 73.9713, "RA_OF_ASC_NODE": 176.9416, "ARG_OF_PERICENTER": 20.7468, "MEAN_ANOMALY": 39.4398, "EPHEMERIS_TYPE": 0, "CLASSIFICATION_TYPE": "U", "NORAD_CAT_ID": 34429, "ELEMENT_SET_NO": 999, "REV_AT_EPOCH": 89385, "BSTAR": 0.0051029846, "MEAN_MOTION_DOT": 0.00205415, "MEAN_MOTION_DDOT": 0}, "tle": {"line1": "1 34429U 93036RW  25342.62711141  .00205415  00000+0  51030-2 0  9999", "line2": "2 34429  73.9713 176.9416 0006226  20.7468  39.4398 15.39418995893854"}}, "geometry": {"type": "Point", "coordinates": [-36.57307604952441, 62.128284712354976]}}, {"type": "Feature", "properties": {"norad_id": 34430, "name": "COSMOS 2251 DEB", "group": "cosmos-2251-debris", "lat": 25.37750688425977, "lon": 122.65761172877787, "alt_km": 787.4267506164997, "timestamp": "2025-12-08T21:31:05.060763+00:00", "meta": {"OBJECT_NAME": "COSMOS 2251 DEB", "OBJECT_ID": "1993-036RX", "EPOCH": "2025-12-08T07:28:08.610528", "MEAN_MOTION": 14.3961089, "ECCENTRICITY": 0.00601376, "INCLINATION": 74.0522, "RA_OF_ASC_NODE": 311.5327, "ARG_OF_PERICENTER": 22.2528, "MEAN_ANOMALY": 338.1215, "EPHEMERIS_TYPE": 0, "CLASSIFICATION_TYPE": "U", "NORAD_CAT_ID": 34430, "ELEMENT_SET_NO": 999, "REV_AT_EPOCH": 87891, "BSTAR": 0.00089279605, "MEAN_MOTION_DOT": 2.824e-05, "MEAN_MOTION_DDOT": 0}, "tle": {"line1": "1 34430U 93036RX  25342.31121077  .00002824  00000+0  89280-3 0  9998", "line2": "2 34430  74.0522 311.5327 0060137  22.2528 338.1215 14.39610890878913"}}, "geometry": {"type": "Point", "coordinates": [122.65761172877787, 25.37750688425977]}}, {"type": "Feature", "properties": {"norad_id": 34431, "name": "COSMOS 2251 DEB", "group": "cosmos-2251-debris", "lat": -24.35105201691731, "lon": 9.581106781992483, "alt_km": 761.3915981389064, "timestamp": "2025-12-08T21:31:05.060773+00:00", "meta": {"OBJECT_NAME": "COSMOS 2251 DEB", "OBJECT_ID": "1993-036RY", "EPOCH": "2025-12-08T15:31:18.609888", "MEAN_MOTION": 14.28755354, "ECCENTRICITY": 0.00684614, "INCLINATION": 74.0745, "RA_OF_ASC_NODE": 182.6084, "ARG_OF_PERICENTER": 169.4203, "MEAN_ANOMALY": 190.8406, "EPHEMERIS_TYPE": 0, "CLASSIFICATION_TYPE": "U", "NORAD_CAT_ID": 34431, "ELEMENT_SET_NO": 999, "REV_AT_EPOCH": 87084, "BSTAR": 0.0010027554, "MEAN_MOTION_DOT": 2.564e-05, "MEAN_MOTION_DDOT": 0}, "tle": {"line1": "1 34431U 93036RY  25342.64674317  .00002564  00000+0  10028-2 0  9999", "line2": "2 34431  74.0745 182.6084 0068461 169.4203 190.8406 14.28755354870842"}}, "geometry": {"type": "Point", "coordinates": [9.581106781992483, -24.35105201691731]}}]}